{"type": "FeatureCollection", "features": [ {"type": "Feature", "properties": {"norad_id": 34141, "name": "COSMOS 2251 DEB", "group": "cosmos-2251-debris", "lat": 50.21978494509852, "lon": 67.64355306928715, "alt_km": 719.8981410560054, "timestamp": "2025-12-02T19:35:50.948342+00:00", "meta": {"OBJECT_NAME": "COSMOS 2251 DEB", "OBJECT_ID": "1993-036LN", "EPOCH": "2025-12-02T06:21:24.664320", "MEAN_MOTION": 14.49035619, "ECCENTRICITY": 0.0048556, "INCLINATION": 74.0117, "RA_OF_ASC_NODE": 48.5361, "ARG_OF_PERICENTER": 138.0627, "MEAN_ANOMALY": 278.8713, "EPHEMERIS_TYPE": 0, "CLASSIFICATION_TYPE": "U", "NORAD_CAT_ID": 34141, "ELEMENT_SET_NO": 999, "REV_AT_EPOCH": 87542, "BSTAR": 0.0021318, "MEAN_MOTION_DOT": 8.195e-05, "MEAN_MOTION_DDOT": 0}, "tle": {"line1": "1 34141U 93036LN  25336.26486880  .00008195  00000+0  21318-2 0  9994", "line2": "2 34141  74.0117  48.5361 0048556 138.0627 278.8713 14.49035619875421"}}, "geometry": {"type": "Point", "coordinates": [67.64355306928715, 50.21978494509852]}}, {"type": "Feature", "properties": {"norad_id": 34270, "name": "COSMOS 2251 DEB", "group": "cosmos-2251-debris", "lat": 18.28477716708037, "lon": 140.31263657867052, "alt_km": 650.586434035441, "timestamp": "2025-12-02T19:35:50.948353+00:00", "meta": {"OBJECT_NAME": "COSMOS 2251 DEB", "OBJECT_ID": "1993-036LQ", "EPOCH": "2025-12-02T09:02:11.765184", "MEAN_MOTION": 14.65074819, "ECCENTRICITY": 0.0047837, "INCLINATION": 74.0111, "RA_OF_ASC_NODE": 326.5965, "ARG_OF_PERICENTER": 122.6214, "MEAN_ANOMALY": 237.9585, "EPHEMERIS_TYPE": 0, "CLASSIFICATION_TYPE": "U", "NORAD_CAT_ID": 34270, "ELEMENT_SET_NO": 999, "REV_AT_EPOCH": 88944, "BSTAR": 0.00068283, "MEAN_MOTION_DOT": 3.697e-05, "MEAN_MOTION_DDOT": 0}, "tle": {"line1": "1 34270U 93036LQ  25336.37652506  .00003697  00000+0  68283-3 0  9994", "line2": "2 34270  74.0111 326.5965 0047837 122.6214 237.9585 14.65074819889442"}}, "geometry": {"type": "Point", "coordinates": [140.31263657867052, 18.28477716708037]}}, {"type": "Feature", "properties": {"norad_id": 34271, "name": "COSMOS 2251 DEB", "group": "cosmos-2251-debris", "lat": -73.97565744691639, "lon": 132.50894528994684, "alt_km": 652.8408103996699, "timestamp": "2025-12-02T19:35:50.948363+00:00", "meta": {"OBJECT_NAME": "COSMOS 2251 DEB", "OBJECT_ID": "1993-036LR", "EPOCH": "2025-12-02T02:43:20.334720", "MEAN_MOTION": 14.7037433, "ECCENTRICITY": 0.0019819, "INCLINATION": 74.0211, "RA_OF_ASC_NODE": 219.9673, "ARG_OF_PERICENTER": 275.3903, "MEAN_ANOMALY": 235.2975, "EPHEMERIS_TYPE": 0, "CLASSIFICATION_TYPE": "U", "NORAD_CAT_ID": 34271, "ELEMENT_SET_NO": 999, "REV_AT_EPOCH": 88078, "BSTAR": 0.0021873181, "MEAN_MOTION_DOT": 0.00013265, "MEAN_MOTION_DDOT": 0}, "tle": {"line1": "1 34271U 93036LR  25336.11342980  .00013265  00000+0  21873-2 0  9994", "line2": "2 34271  74.0211 219.9673 0019819 275.3903 235.2975 14.70374330880784"}}, "geometry": {"type": "Point", "coordinates": [132.50894528994684, -73.97565744691639]}}, {"type": "Feature", "properties": {"norad_id": 34273, "name": "COSMOS 2251 DEB", "group": "cosmos-2251-debris", "lat": -73.86543873863211, "lon": 8.136119270834078, "alt_km": 688.4173930966699, "timestamp": "2025-12-02T19:35:50.948373+00:00", "meta": {"OBJECT_NAME": "COSMOS 2251 DEB", "OBJECT_ID": "1993-036LT", "EPOCH": "2025-12-02T10:25:08.278176", "MEAN_MOTION": 14.61051536, "ECCENTRICITY": 0.001455, "INCLINATION": 74.0343, "RA_OF_ASC_NODE": 107.128, "ARG_OF_PERICENTER": 232.3431, "MEAN_ANOMALY": 184.5456, "EPHEMERIS_TYPE": 0, "CLASSIFICATION_TYPE": "U", "NORAD_CAT_ID": 34273, "ELEMENT_SET_NO": 999, "REV_AT_EPOCH": 88471, "BSTAR": 0.0014245, "MEAN_MOTION_DOT": 6.983e-05, "MEAN_MOTION_DDOT": 0}, "tle": {"line1": "1 34273U 93036LT  25336.43412359  .00006983  00000+0  14245-2 0  9993", "line2": "2 34273  74.0343 107.1280 0014550 232.3431 184.5456 14.61051536884717"}}, "geometry": {"type": "Point", "coordinates": [8.136119270834078, -73.86543873863211]}}, {"type": "Feature", "properties": {"norad_id": 34274, "name": "COSMOS 2251 DEB", "group": "cosmos-2251-debris", "lat": -41.5321563189965, "lon": -77.59845155103545, "alt_km": 669.2100329920049, "timestamp": "2025-12-02T19:35:50.948384+00:00", "meta": {"OBJECT_NAME": "COSMOS 2251 DEB", "OBJECT_ID": "1993-036LU", "EPOCH": "2025-12-02T08:59:57.814944", "MEAN_MOTION": 14.64555424, "ECCENTRICITY": 0.0022691, "INCLINATION": 74.0035, "RA_OF_ASC_NODE": 88.5321, "ARG_OF_PERICENTER": 239.0196, "MEAN_ANOMALY": 177.2965, "EPHEMERIS_TYPE": 0, "CLASSIFICATION_TYPE": "U", "NORAD_CAT_ID": 34274, "ELEMENT_SET_NO": 999, "REV_AT_EPOCH": 88524, "BSTAR": 0.0016903, "MEAN_MOTION_DOT": 8.983e-05, "MEAN_MOTION_DDOT": 0}, "tle": {"line1": "1 34274U 93036LU  25336.37497471  .00008983  00000+0  16903-2 0  9990", "line2": "2 34274  74.0035  88.5321 0022691 239.0196 177.2965 14.64555424885242"}}, "geometry": {"type": "Point", "coordinates": [-77.59845155103545, -41.5321563189965]}}, {"type": "Feature", "properties": {"norad_id": 34276, "name": "COSMOS 2251 DEB", "group": "cosmos-2251-debris", "lat": 64.04633266276328, "lon": 140.24584449540163, "alt_km": 712.0631965713337, "timestamp": "2025-12-02T19:35:50.948394+00:00", "meta": {"OBJECT_NAME": "COSMOS 2251 DEB", "OBJECT_ID": "1993-036LW", "EPOCH": "2025-12-02T07:51:41.486400", "MEAN_MOTION": 14.57098546, "ECCENTRICITY": 0.0022781, "INCLINATION": 74.0223, "RA_OF_ASC_NODE": 105.114, "ARG_OF_PERICENTER": 252.4003, "MEAN_ANOMALY": 132.8869, "EPHEMERIS_TYPE": 0, "CLASSIFICATION_TYPE": "U", "NORAD_CAT_ID": 34276, "ELEMENT_SET_NO": 999, "REV_AT_EPOCH": 88441, "BSTAR": 0.0011597, "MEAN_MOTION_DOT": 5.218e-05, "MEAN_MOTION_DDOT": 0}, "tle": {"line1": "1 34276U 93036LW  25336.32756350  .00005218  00000+0  11597-2 0  9993", "line2": "2 34276  74.0223 105.1140 0022781 252.4003 132.8869 14.57098546884411"}}, "geometry": {"type": "Point", "coordinates": [140.24584449540163, 64.04633266276328]}}, {"type": "Feature", "properties": {"norad_id": 34297, "name": "COSMOS 2251 DEB", "group": "cosmos-2251-debris", "lat": 73.26709123874376, "lon": 50.39643110486156, "alt_km": 760.5837194478217, "timestamp": "2025-12-02T19:35:50.948404+00:00", "meta": {"OBJECT_NAME": "COSMOS 2251 DEB", "OBJECT_ID": "1993-036MT", "EPOCH": "2025-12-02T09:41:51.787104", "MEAN_MOTION": 14.36613645, "ECCENTRICITY": 0.0016819, "INCLINATION": 74.0482, "RA_OF_ASC_NODE": 303.2116, "ARG_OF_PERICENTER": 14.2155, "MEAN_ANOMALY": 108.2107, "EPHEMERIS_TYPE": 0, "CLASSIFICATION_TYPE": "U", "NORAD_CAT_ID": 34297, "ELEMENT_SET_NO": 999, "REV_AT_EPOCH": 87916, "BSTAR": 0.00020216, "MEAN_MOTION_DOT": 5.69e-06, "MEAN_MOTION_DDOT": 0}, "tle": {"line1": "1 34297U 93036MT  25336.40407161  .00000569  00000+0  20216-3 0  9991", "line2": "2 34297  74.0482 303.2116 0016819  14.2155 108.2107 14.36613645879160"}}, "geometry": {"type": "Point", "coordinates": [50.39643110486156, 73.26709123874376]}}, {"type": "Feature", "properties": {"norad_id": 34299, "name": "COSMOS 2251 DEB", "group": "cosmos-2251-debris", "lat": 72.80388566253968, "lon": 65.04529672047316, "alt_km": 369.01504750861386, "timestamp": "2025-12-02T19:35:50.948415+00:00", "meta": {"OBJECT_NAME": "COSMOS 2251 DEB", "OBJECT_ID": "1993-036MV", "EPOCH": "2025-12-02T11:32:13.295616", "MEAN_MOTION": 15.5812695, "ECCENTRICITY": 0.0025154, "INCLINATION": 73.9834, "RA_OF_ASC_NODE": 357.6329, "ARG_OF_PERICENTER": 63.9269, "MEAN_ANOMALY": 296.4532, "EPHEMERIS_TYPE": 0, "CLASSIFICATION_TYPE": "U", "NORAD_CAT_ID": 34299, "ELEMENT_SET_NO": 999, "REV_AT_EPOCH": 88850, "BSTAR": 0.0056252, "MEAN_MOTION_DOT": 0.00453889, "MEAN_MOTION_DDOT": 0}, "tle": {"line1": "1 34299U 93036MV  25336.48070944  .00453889  00000+0  56252-2 0  9991", "line2": "2 34299  73.9834 357.6329 0025154  63.9269 296.4532 15.58126950888502"}}, "geometry": {"type": "Point", "coordinates": [65.04529672047316, 72.80388566253968]}}, {"type": "Feature", "properties": {"norad_id": 34301, "name": "COSMOS 2251 DEB", "group": "cosmos-2251-debris", "lat": 34.6377995524345, "lon": -5.016163416622831, "alt_km": 616.5375342414973, "timestamp": "2025-12-02T19:35:50.948425+00:00", "meta": {"OBJECT_NAME": "COSMOS 2251 DEB", "OBJECT_ID": "1993-036MX", "EPOCH": "2025-12-02T08:25:44.639040", "MEAN_MOTION": 14.83751874, "ECCENTRICITY": 0.0012498, "INCLINATION": 74.0066, "RA_OF_ASC_NODE": 187.3353, "ARG_OF_PERICENTER": 246.0039, "MEAN_ANOMALY": 293.1462, "EPHEMERIS_TYPE": 0, "CLASSIFICATION_TYPE": "U", "NORAD_CAT_ID": 34301, "ELEMENT_SET_NO": 999, "REV_AT_EPOCH": 88246, "BSTAR": 0.0029482, "MEAN_MOTION_DOT": 0.00024489, "MEAN_MOTION_DDOT": 0}, "tle": {"line1": "1 34301U 93036MX  25336.35121110  .00024489  00000+0  29482-2 0  9998", "line2": "2 34301  74.0066 187.3353 0012498 246.0039 293.1462 14.83751874882467"}}, "geometry": {"type": "Point", "coordinates": [-5.016163416622831, 34.6377995524345]}}, {"type": "Feature", "properties": {"norad_id": 34302, "name": "COSMOS 2251 DEB", "group": "cosmos-2251-debris", "lat": 33.19364252784763, "lon": 152.4291453695098, "alt_km": 712.6064065536048, "timestamp": "2025-12-02T19:35:50.948435+00:00", "meta": {"OBJECT_NAME": "COSMOS 2251 DEB", "OBJECT_ID": "1993-036MY", "EPOCH": "2025-12-02T11:14:24.416160", "MEAN_MOTION": 14.39266981, "ECCENTRICITY": 0.0078153, "INCLINATION": 74.1771, "RA_OF_ASC_NODE": 142.3741, "ARG_OF_PERICENTER": 0.6196, "MEAN_ANOMALY": 30.1063, "EPHEMERIS_TYPE": 0, "CLASSIFICATION_TYPE": "U", "NORAD_CAT_ID": 34302, "ELEMENT_SET_NO": 999, "REV_AT_EPOCH": 87573, "BSTAR": 0.00083321, "MEAN_MOTION_DOT": 2.654e-05, "MEAN_MOTION_DDOT": 0}, "tle": {"line1": "1 34302U 93036MY  25336.46833815  .00002654  00000+0  83321-3 0  9996", "line2": "2 34302  74.1771 142.3741 0078153   0.6196  30.1063 14.39266981875731"}}, "geometry": {"type": "Point", "coordinates": [152.4291453695098, 33.19364252784763]}}]}